     2.100          NAVIGATION                              RINEX VERSION / TYPE
fic2rin                                 10/05/2009 01:11:09 PGM / RUN BY / DATE
                                                            END OF HEADER
22 09 10  4  6  0  0.0  .189552549273D-03 -.795807864051D-12  .000000000000D+00
     .680000000000D+02  .143750000000D+02  .558523264736D-08  .306134123217D+01
     .633299350739D-06  .534412323032D-02  .127218663692D-05  .515365762901D+04
     .216000000000D+05  .447034835815D-07 -.169608662907D+01 -.819563865662D-07
     .937828211738D+00  .344406250000D+03 -.188616977203D+01 -.881679582636D-08
     .122862260563D-09  .100000000000D+01  .155200000000D+04  .000000000000D+00
     .340000000000D+01  .000000000000D+00 -.176951289177D-07  .680000000000D+02
     .144060000000D+05  .400000000000D+01
23 09 10  4  6  0  0.0  .387910287827D-03 -.454747350886D-12  .000000000000D+00
     .990000000000D+02 -.103187500000D+03  .444411368660D-08  .157860595697D+01
    -.517442822456D-05  .639553717338D-02  .843033194542D-05  .515376823997D+04
     .216000000000D+05  .726431608200D-07 -.674423582461D+00  .242143869400D-07
     .969753557831D+00  .221312500000D+03  .298363290950D+01 -.804926385558D-08
    -.482877256633D-09  .100000000000D+01  .155200000000D+04  .000000000000D+00
     .340000000000D+01  .000000000000D+00 -.200234353542D-07  .990000000000D+02
     .144060000000D+05  .400000000000D+01
24 09 10  4  6  0  0.0  .225747469813D-03  .306954461848D-11  .000000000000D+00
     .103000000000D+03  .111750000000D+03  .450197323954D-08 -.231278483049D+01
     .586919486523D-05  .640797871165D-02  .103991478682D-04  .515367854691D+04
     .216000000000D+05 -.763684511185D-07 -.272540836927D+01  .931322574615D-07
     .950494551456D+00  .175125000000D+03 -.613840332434D+00 -.807176479283D-08
     .468948104999D-09  .100000000000D+01  .155200000000D+04  .000000000000D+00
     .240000000000D+01  .630000000000D+02 -.139698386192D-08  .103000000000D+03
     .144060000000D+05  .400000000000D+01
25 09 10  4  6  0  0.0  .618573743850D-03  .142108547152D-10  .000000000000D+00
     .840000000000D+02  .237187500000D+02  .405981196461D-08 -.176099331697D+01
     .117532908916D-05  .112287031952D-01  .117011368275D-04  .515364761543D+04
     .216000000000D+05 -.162050127983D-06  .272475158781D+00  .232830643654D-06
     .971393796211D+00  .160593750000D+03 -.121331123835D+01 -.775246577846D-08
     .211080220910D-09  .100000000000D+01  .155200000000D+04  .000000000000D+00
     .485000000000D+01  .000000000000D+00 -.745058059692D-08  .840000000000D+02
     .144060000000D+05  .400000000000D+01
26 09 10  4  6  0  0.0  .925408676267D-05 -.113686837722D-11  .000000000000D+00
     .130000000000D+02 -.971562500000D+02  .391587739773D-08 -.581041837833D+00
    -.485777854919D-05  .196682292735D-01  .101346522570D-04  .515361154938D+04
     .216000000000D+05 -.689178705215D-07 -.621965337021D+00  .273808836937D-06
     .992250726060D+00  .203312500000D+03  .103068538759D+01 -.805426406386D-08
    -.443947063606D-09  .100000000000D+01  .155200000000D+04  .000000000000D+00
     .240000000000D+01  .000000000000D+00 -.605359673500D-08  .130000000000D+02
     .144060000000D+05  .400000000000D+01
27 09 10  4  6  0  0.0  .882395543158D-04  .329691829393D-11  .000000000000D+00
     .570000000000D+02  .275000000000D+02  .395945064130D-08  .234204755596D+01
     .135600566864D-05  .213724629721D-01  .118222087622D-04  .515373809814D+04
     .216000000000D+05  .245869159698D-06  .309277860584D+00 -.113621354103D-06
     .976155765720D+00  .147968750000D+03 -.153867674614D+01 -.738030741943D-08
     .220723479733D-09  .100000000000D+01  .155200000000D+04  .000000000000D+00
     .240000000000D+01  .000000000000D+00 -.419095158577D-08  .570000000000D+02
     .144060000000D+05  .400000000000D+01
28 09 10  4  6  0  0.0 -.260188244283D-04  .113686837722D-12  .000000000000D+00
     .780000000000D+02  .718750000000D+01  .468733810359D-08 -.297720225224D+01
     .396743416786D-06  .151411934057D-01  .348687171936D-05  .515364583397D+04
     .216000000000D+05  .162050127983D-06  .144465138924D+01 -.145286321640D-06
     .967375493792D+00  .313968750000D+03 -.201550778283D+01 -.804747806691D-08
     .360729311538D-10  .100000000000D+01  .155200000000D+04  .000000000000D+00
     .340000000000D+01  .000000000000D+00 -.102445483208D-07  .780000000000D+02
     .144060000000D+05  .400000000000D+01
29 09 10  4  6  0  0.0  .630384311080D-04  .318323145621D-11  .000000000000D+00
     .480000000000D+02 -.482187500000D+02  .432589447658D-08 -.928817328330D+00
    -.246800482273D-05  .302233209368D-02  .106319785118D-04  .515360399437D+04
     .216000000000D+05 -.130385160446D-07  .248786101600D+01  .521540641785D-07
     .960350866926D+00  .173875000000D+03 -.127382656801D+01 -.799961893052D-08
    -.504306720685D-09  .100000000000D+01  .155200000000D+04  .000000000000D+00
     .240000000000D+01  .000000000000D+00 -.884756445885D-08  .480000000000D+02
     .144060000000D+05  .400000000000D+01
30 09 10  4  6  0  0.0  .182060524821D-03  .306954461848D-11  .000000000000D+00
     .650000000000D+02  .179375000000D+02  .507199698332D-08 -.249739583328D+01
     .105425715446D-05  .119301978266D-01  .350736081600D-05  .515365695572D+04
     .216000000000D+05  .124797224998D-06  .136961530735D+01 -.130385160446D-07
     .952947887019D+00  .307781250000D+03  .145946955126D+01 -.827820196320D-08
     .100004165575D-09  .100000000000D+01  .155200000000D+04  .000000000000D+00
     .240000000000D+01  .000000000000D+00 -.791624188423D-08  .650000000000D+02
     .144060000000D+05  .400000000000D+01
32 09 10  4  6  0  0.0  .184531323612D-03 -.727595761418D-11  .000000000000D+00
     .530000000000D+02  .425000000000D+01  .519700219029D-08  .712500662924D+00
     .260770320892D-07  .132617346244D-01  .206753611565D-05  .515369507027D+04
     .216000000000D+05 -.540167093277D-07 -.164304856482D+01 -.193715095520D-06
     .961855296768D+00  .343406250000D+03 -.110931786779D+01 -.880536677887D-08
     .104647216119D-09  .100000000000D+01  .155200000000D+04  .000000000000D+00
     .240000000000D+01  .000000000000D+00 -.325962901115D-08  .530000000000D+02
     .144060000000D+05  .400000000000D+01
25 09 10  4  5 59 44.0  .618570949882D-03  .142108547152D-10  .000000000000D+00
     .460000000000D+02  .237187500000D+02  .406016912234D-08 -.176332732376D+01
     .117532908916D-05  .112287062220D-01  .117011368275D-04  .515364761925D+04
     .215840000000D+05 -.162050127983D-06  .272475319702D+00  .232830643654D-06
     .971393794748D+00  .160593750000D+03 -.121331096478D+01 -.775246577846D-08
     .211080220910D-09  .100000000000D+01  .155200000000D+04  .000000000000D+00
     .240000000000D+01  .000000000000D+00 -.745058059692D-08  .460000000000D+02
     .157260000000D+05  .400000000000D+01
23 09 10  4  5 59 44.0  .387909822166D-03 -.454747350886D-12  .000000000000D+00
     .100000000000D+01 -.103187500000D+03  .444447084434D-08  .157627195748D+01
    -.517442822456D-05  .639553752262D-02  .843033194542D-05  .515376824379D+04
     .215840000000D+05  .726431608200D-07 -.674423447872D+00  .242143869400D-07
     .969753554905D+00  .221312500000D+03  .298363327523D+01 -.804926385558D-08
    -.482520098899D-09  .100000000000D+01  .155200000000D+04  .000000000000D+00
     .240000000000D+01  .000000000000D+00 -.200234353542D-07  .100000000000D+01
     .195660000000D+05  .400000000000D+01
23 09 10  4  7 59 44.0  .387907028198D-03 -.454747350886D-12  .000000000000D+00
     .120000000000D+02 -.117281250000D+03  .437018203562D-08  .262612784198D+01
    -.591017305851D-05  .639416626655D-02  .897236168385D-05  .515377229691D+04
     .287840000000D+05 -.838190317154D-07 -.674481909005D+00  .745058059692D-07
     .969750693437D+00  .213312500000D+03  .298389934053D+01 -.798390399022D-08
    -.359300680601D-09  .100000000000D+01  .155200000000D+04  .000000000000D+00
     .240000000000D+01  .000000000000D+00 -.200234353542D-07  .120000000000D+02
     .216060000000D+05  .400000000000D+01
25 09 10  4  7 59 44.0  .618673395365D-03  .142108547152D-10  .000000000000D+00
     .470000000000D+02  .136562500000D+02  .428196407528D-08 -.713253688302D+00
     .758096575737D-06  .112282297341D-01  .118464231491D-04  .515364487839D+04
     .287840000000D+05 -.726431608200D-07  .272417178949D+00 -.104308128357D-06
     .971394859752D+00  .158468750000D+03 -.121318876577D+01 -.803390607301D-08
     .380015829185D-09  .100000000000D+01  .155200000000D+04  .000000000000D+00
     .240000000000D+01  .000000000000D+00 -.745058059692D-08  .470000000000D+02
     .216060000000D+05  .400000000000D+01
 1 09 10  4  8  0  0.0 -.587543472648D-04 -.113686837722D-11  .000000000000D+00
     .910000000000D+02  .112500000000D+02  .631133432098D-08 -.106140724218D+01
     .469386577606D-06  .379491131753D-02  .371783971786D-05  .515369408417D+04
     .288000000000D+05  .484287738800D-07  .140647869538D+01  .745058059692D-07
     .961693717466D+00  .308437500000D+03  .978372028093D+00 -.845428072616D-08
    -.442875590403D-10  .100000000000D+01  .155200000000D+04  .000000000000D+00
     .240000000000D+01  .630000000000D+02 -.190921127796D-07  .910000000000D+02
     .216060000000D+05  .400000000000D+01
 2 09 10  4  8  0  0.0  .177829992026D-03  .341060513165D-11  .000000000000D+00
     .270000000000D+02  .902812500000D+02  .459054835762D-08  .272023530515D+01
     .474788248539D-05  .911619537510D-02  .103656202555D-04  .515372662735D+04
     .288000000000D+05 -.149011611938D-06 -.279027812873D+01  .104308128357D-06
     .941191116616D+00  .163875000000D+03  .289999151482D+01 -.804569227824D-08
     .299655338991D-09  .100000000000D+01  .155200000000D+04  .000000000000D+00
     .240000000000D+01  .000000000000D+00 -.172294676304D-07  .270000000000D+02
     .216060000000D+05  .400000000000D+01
